start=new Date('2021-12-29T00:00:00.000Z').valueOf();
sats=[{"EPOCH":"2021-12-28T17:28:28.115616","INCLINATION":"53.0576","RCS_SIZE":"LARGE","TLE_LINE1":"1 45704U 20035AZ  21362.72810319  .00005276  00000-0  37272-3 0  9999","RA_OF_ASC_NODE":"103.8346","NORAD_CAT_ID":"45704","TLE_LINE2":"2 45704  53.0576 103.8346 0001259  90.3883 269.7250 15.06406881 87837","SEMIMAJOR_AXIS":"6925.327","TIME_SYSTEM":"UTC","OBJECT_NAME":"STARLINK-1409","OBJECT_TYPE":"PAYLOAD","REF_FRAME":"TEME","MEAN_MOTION_DOT":"0.00005276","PERIOD":"95.592","PERIAPSIS":"546.321","LAUNCH_DATE":"2020-06-04","REV_AT_EPOCH":"8783","MEAN_ANOMALY":"269.7250","MEAN_ELEMENT_THEORY":"SGP4","BSTAR":"0.00037272000000","MEAN_MOTION":"15.06406881","OBJECT_ID":"2020-035AZ","ECCENTRICITY":"0.00012590","EPHEMERIS_TYPE":"0","CENTER_NAME":"EARTH","APOAPSIS":"548.064","ELEMENT_SET_NO":"999","CLASSIFICATION_TYPE":"U","ARG_OF_PERICENTER":"90.3883","GP_ID":"192672415","MEAN_MOTION_DDOT":"0.0000000000000","DECAY_DATE":null,"COUNTRY_CODE":"US","SITE":"AFETR","FILE":"3254265"},{"LAUNCH_DATE":"2020-06-04","PERIAPSIS":"546.301","PERIOD":"95.592","MEAN_MOTION_DOT":"0.00002292","REF_FRAME":"TEME","OBJECT_TYPE":"PAYLOAD","MEAN_ANOMALY":"271.0998","REV_AT_EPOCH":"8781","INCLINATION":"53.0540","EPOCH":"2021-12-28T16:31:26.337792","OBJECT_NAME":"STARLINK-1410","TIME_SYSTEM":"UTC","NORAD_CAT_ID":"45705","TLE_LINE2":"2 45705  53.0540 104.0472 0001306  89.0140 271.0998 15.06402796 87810","SEMIMAJOR_AXIS":"6925.340","TLE_LINE1":"1 45705U 20035BA  21362.68849928  .00002292  00000-0  17268-3 0  9991","RA_OF_ASC_NODE":"104.0472","RCS_SIZE":"LARGE","DECAY_DATE":null,"MEAN_MOTION_DDOT":"0.0000000000000","FILE":"3254265","SITE":"AFETR","COUNTRY_CODE":"US","ECCENTRICITY":"0.00013060","MEAN_MOTION":"15.06402796","OBJECT_ID":"2020-035BA","BSTAR":"0.00017268000000","MEAN_ELEMENT_THEORY":"SGP4","GP_ID":"192673167","CLASSIFICATION_TYPE":"U","ARG_OF_PERICENTER":"89.0140","ELEMENT_SET_NO":"999","CENTER_NAME":"EARTH","APOAPSIS":"548.109","EPHEMERIS_TYPE":"0"},{"MEAN_MOTION_DDOT":"0.0000000000000","DECAY_DATE":null,"COUNTRY_CODE":"US","FILE":"3254265","SITE":"AFETR","BSTAR":"0.00041109000000","MEAN_ELEMENT_THEORY":"SGP4","MEAN_MOTION":"15.06410150","OBJECT_ID":"2020-035BB","ECCENTRICITY":"0.00012190","EPHEMERIS_TYPE":"0","APOAPSIS":"548.027","CENTER_NAME":"EARTH","ELEMENT_SET_NO":"999","CLASSIFICATION_TYPE":"U","ARG_OF_PERICENTER":"84.7717","GP_ID":"192673918","OBJECT_TYPE":"PAYLOAD","REF_FRAME":"TEME","MEAN_MOTION_DOT":"0.00005849","PERIOD":"95.591","LAUNCH_DATE":"2020-06-04","PERIAPSIS":"546.338","REV_AT_EPOCH":"8823","MEAN_ANOMALY":"275.3412","EPOCH":"2021-12-28T16:19:30.213120","INCLINATION":"53.0538","RCS_SIZE":"LARGE","RA_OF_ASC_NODE":"74.0755","TLE_LINE1":"1 45706U 20035BB  21362.68021080  .00005849  00000-0  41109-3 0  9995","SEMIMAJOR_AXIS":"6925.317","TLE_LINE2":"2 45706  53.0538  74.0755 0001219  84.7717 275.3412 15.06410150 88231","NORAD_CAT_ID":"45706","TIME_SYSTEM":"UTC","OBJECT_NAME":"STARLINK-1411"},{"SITE":"AFETR","FILE":"3253660","COUNTRY_CODE":"US","DECAY_DATE":null,"MEAN_MOTION_DDOT":"0.0000000000000","GP_ID":"192638405","ELEMENT_SET_NO":"999","ARG_OF_PERICENTER":"97.1534","CLASSIFICATION_TYPE":"U","EPHEMERIS_TYPE":"0","APOAPSIS":"548.113","CENTER_NAME":"EARTH","OBJECT_ID":"2020-035BC","MEAN_MOTION":"15.06388898","ECCENTRICITY":"0.00012500","MEAN_ELEMENT_THEORY":"SGP4","BSTAR":"0.00017524000000","MEAN_ANOMALY":"262.9598","REV_AT_EPOCH":"8822","PERIAPSIS":"546.382","LAUNCH_DATE":"2020-06-04","MEAN_MOTION_DOT":"0.00002329","PERIOD":"95.593","OBJECT_TYPE":"PAYLOAD","REF_FRAME":"TEME","OBJECT_NAME":"STARLINK-1412","TIME_SYSTEM":"UTC","SEMIMAJOR_AXIS":"6925.383","TLE_LINE2":"2 45707  53.0554  74.6922 0001250  97.1534 262.9598 15.06388898 88221","NORAD_CAT_ID":"45707","RCS_SIZE":"LARGE","RA_OF_ASC_NODE":"74.6922","TLE_LINE1":"1 45707U 20035BC  21362.54383848  .00002329  00000-0  17524-3 0  9998","INCLINATION":"53.0554","EPOCH":"2021-12-28T13:03:07.644672"},{"SITE":"AFETR","FILE":"3253660","COUNTRY_CODE":"US","DECAY_DATE":null,"MEAN_MOTION_DDOT":"0.0000000000000","GP_ID":"192637153","ARG_OF_PERICENTER":"87.6320","CLASSIFICATION_TYPE":"U","ELEMENT_SET_NO":"999","CENTER_NAME":"EARTH","APOAPSIS":"548.063","EPHEMERIS_TYPE":"0","ECCENTRICITY":"0.00012540","MEAN_MOTION":"15.06406265","OBJECT_ID":"2020-035BD","BSTAR":"0.00067274000000","MEAN_ELEMENT_THEORY":"SGP4","MEAN_ANOMALY":"272.4812","REV_AT_EPOCH":"8823","PERIAPSIS":"546.326","LAUNCH_DATE":"2020-06-04","PERIOD":"95.592","MEAN_MOTION_DOT":"0.00009755","REF_FRAME":"TEME","OBJECT_TYPE":"PAYLOAD","OBJECT_NAME":"STARLINK-1418","TIME_SYSTEM":"UTC","TLE_LINE2":"2 45708  53.0529  74.5107 0001254  87.6320 272.4812 15.06406265 88234","SEMIMAJOR_AXIS":"6925.329","NORAD_CAT_ID":"45708","TLE_LINE1":"1 45708U 20035BD  21362.58438330  .00009755  00000-0  67274-3 0  9997","RA_OF_ASC_NODE":"74.5107","RCS_SIZE":"LARGE","INCLINATION":"53.0529","EPOCH":"2021-12-28T14:01:30.717120"},{"MEAN_MOTION_DDOT":"0.0000000000000","DECAY_DATE":null,"COUNTRY_CODE":"US","SITE":"AFETR","FILE":"3254265","MEAN_ELEMENT_THEORY":"SGP4","BSTAR":"0.00036430000000","ECCENTRICITY":"0.00013560","OBJECT_ID":"2020-035BE","MEAN_MOTION":"15.06408372","APOAPSIS":"548.127","CENTER_NAME":"EARTH","EPHEMERIS_TYPE":"0","ARG_OF_PERICENTER":"88.2778","CLASSIFICATION_TYPE":"U","ELEMENT_SET_NO":"999","GP_ID":"192673668","REF_FRAME":"TEME","OBJECT_TYPE":"PAYLOAD","PERIOD":"95.592","MEAN_MOTION_DOT":"0.00005150","LAUNCH_DATE":"2020-06-04","PERIAPSIS":"546.249","REV_AT_EPOCH":"8820","MEAN_ANOMALY":"271.8366","EPOCH":"2021-12-28T16:30:07.182432","INCLINATION":"53.0554","RA_OF_ASC_NODE":"74.0378","TLE_LINE1":"1 45709U 20035BE  21362.68758313  .00005150  00000-0  36430-3 0  9990","RCS_SIZE":"LARGE","TLE_LINE2":"2 45709  53.0554  74.0378 0001356  88.2778 271.8366 15.06408372 88200","SEMIMAJOR_AXIS":"6925.323","NORAD_CAT_ID":"45709","TIME_SYSTEM":"UTC","OBJECT_NAME":"STARLINK-1421"},{"OBJECT_NAME":"STARLINK-1423","TIME_SYSTEM":"UTC","TLE_LINE2":"2 45710  53.0538  74.9544 0001131  88.5806 271.5313 15.06392020 88216","SEMIMAJOR_AXIS":"6925.373","NORAD_CAT_ID":"45710","RCS_SIZE":"LARGE","RA_OF_ASC_NODE":"74.9544","TLE_LINE1":"1 45710U 20035BF  21362.48486733 -.00001711  00000-0 -96017-4 0  9993","INCLINATION":"53.0538","EPOCH":"2021-12-28T11:38:12.537312","MEAN_ANOMALY":"271.5313","REV_AT_EPOCH":"8821","LAUNCH_DATE":"2020-06-04","PERIAPSIS":"546.455","MEAN_MOTION_DOT":"-0.00001711","PERIOD":"95.593","OBJECT_TYPE":"PAYLOAD","REF_FRAME":"TEME","GP_ID":"192638654","ELEMENT_SET_NO":"999","ARG_OF_PERICENTER":"88.5806","CLASSIFICATION_TYPE":"U","EPHEMERIS_TYPE":"0","APOAPSIS":"548.021","CENTER_NAME":"EARTH","MEAN_MOTION":"15.06392020","OBJECT_ID":"2020-035BF","ECCENTRICITY":"0.00011310","BSTAR":"-0.00009601700000","MEAN_ELEMENT_THEORY":"SGP4","SITE":"AFETR","FILE":"3253660","COUNTRY_CODE":"US","DECAY_DATE":null,"MEAN_MOTION_DDOT":"0.0000000000000"},{"EPOCH":"2021-12-28T15:58:17.387328","INCLINATION":"53.0545","TLE_LINE1":"1 45711U 20035BG  21362.66547902  .00000427  00000-0  47564-4 0  9994","RA_OF_ASC_NODE":"74.1496","RCS_SIZE":"LARGE","TLE_LINE2":"2 45711  53.0545  74.1496 0001295  77.5237 282.5896 15.06396186 88237","NORAD_CAT_ID":"45711","SEMIMAJOR_AXIS":"6925.360","OBJECT_NAME":"STARLINK-1433","TIME_SYSTEM":"UTC","REF_FRAME":"TEME","OBJECT_TYPE":"PAYLOAD","PERIOD":"95.592","MEAN_MOTION_DOT":"0.00000427","LAUNCH_DATE":"2020-06-04","PERIAPSIS":"546.328","REV_AT_EPOCH":"8823","MEAN_ANOMALY":"282.5896","BSTAR":"0.00004756400000","MEAN_ELEMENT_THEORY":"SGP4","ECCENTRICITY":"0.00012950","OBJECT_ID":"2020-035BG","MEAN_MOTION":"15.06396186","APOAPSIS":"548.122","CENTER_NAME":"EARTH","EPHEMERIS_TYPE":"0","CLASSIFICATION_TYPE":"U","ARG_OF_PERICENTER":"77.5237","ELEMENT_SET_NO":"999","GP_ID":"192672667","MEAN_MOTION_DDOT":"0.0000000000000","DECAY_DATE":null,"COUNTRY_CODE":"US","FILE":"3254265","SITE":"AFETR"},{"ECCENTRICITY":"0.00013100","OBJECT_ID":"2020-035BH","MEAN_MOTION":"15.06398690","BSTAR":"0.00020885000000","MEAN_ELEMENT_THEORY":"SGP4","GP_ID":"192672416","CLASSIFICATION_TYPE":"U","ARG_OF_PERICENTER":"89.6987","ELEMENT_SET_NO":"999","CENTER_NAME":"EARTH","APOAPSIS":"548.125","EPHEMERIS_TYPE":"0","DECAY_DATE":null,"MEAN_MOTION_DDOT":"0.0000000000000","FILE":"3254265","SITE":"AFETR","COUNTRY_CODE":"US","INCLINATION":"53.0553","EPOCH":"2021-12-28T17:28:30.398304","TIME_SYSTEM":"UTC","OBJECT_NAME":"STARLINK-1434","TLE_LINE2":"2 45712  53.0553  73.8682 0001310  89.6987 270.4152 15.06398690 88259","SEMIMAJOR_AXIS":"6925.353","NORAD_CAT_ID":"45712","RA_OF_ASC_NODE":"73.8682","TLE_LINE1":"1 45712U 20035BH  21362.72812961  .00002831  00000-0  20885-3 0  9999","RCS_SIZE":"LARGE","LAUNCH_DATE":"2020-06-04","PERIAPSIS":"546.310","PERIOD":"95.592","MEAN_MOTION_DOT":"0.00002831","REF_FRAME":"TEME","OBJECT_TYPE":"PAYLOAD","MEAN_ANOMALY":"270.4152","REV_AT_EPOCH":"8825"},{"MEAN_ELEMENT_THEORY":"SGP4","BSTAR":"0.00011418000000","ECCENTRICITY":"0.00012390","OBJECT_ID":"2020-035BJ","MEAN_MOTION":"15.06400499","APOAPSIS":"548.070","CENTER_NAME":"EARTH","EPHEMERIS_TYPE":"0","CLASSIFICATION_TYPE":"U","ARG_OF_PERICENTER":"90.0347","ELEMENT_SET_NO":"999","GP_ID":"192673168","MEAN_MOTION_DDOT":"0.0000000000000","DECAY_DATE":null,"COUNTRY_CODE":"US","SITE":"AFETR","FILE":"3254265","EPOCH":"2021-12-28T17:57:41.875776","INCLINATION":"53.0531","RA_OF_ASC_NODE":"93.7755","TLE_LINE1":"1 45713U 20035BJ  21362.74840134  .00001420  00000-0  11418-3 0  9990","RCS_SIZE":"LARGE","SEMIMAJOR_AXIS":"6925.347","TLE_LINE2":"2 45713  53.0531  93.7755 0001239  90.0347 270.0783 15.06400499 87968","NORAD_CAT_ID":"45713","TIME_SYSTEM":"UTC","OBJECT_NAME":"STARLINK-1436","REF_FRAME":"TEME","OBJECT_TYPE":"PAYLOAD","PERIOD":"95.592","MEAN_MOTION_DOT":"0.00001420","PERIAPSIS":"546.354","LAUNCH_DATE":"2020-06-04","REV_AT_EPOCH":"8796","MEAN_ANOMALY":"270.0783"}];
